NOAA 15                 
1 25338U 98030A   23067.55979457  .00000534  00000+0  24075-3 0  9992
2 25338  98.6183  98.2827 0009416 244.3163 115.7046 14.26261446290918
NOAA 18                 
1 28654U 05018A   23067.43841517  .00000481  00000+0  28254-3 0  9996
2 28654  98.9178 142.2919 0013307 306.9647  53.0306 14.12880868917343
NOAA 19                 
1 33591U 09005A   23067.54122371  .00000479  00000+0  28307-3 0  9990
2 33591  99.1145 111.7978 0014270 162.6368 197.5294 14.12704085725735
METOP-B                 
1 38771U 12049A   23067.44924894  .00000392  00000+0  19931-3 0  9993
2 38771  98.6919 128.4495 0000909  72.5677  24.3828 14.21499601543236
SARAL                   
1 39086U 13009A   23067.49600491  .00000390  00000+0  16098-3 0  9998
2 39086  98.5464 254.2486 0001367 188.0582 172.0580 14.32148875524270
METOP-C                 
1 43689U 18087A   23067.39655285  .00000382  00000+0  19436-3 0  9993
2 43689  98.6964 128.4832 0002965  16.9925 343.1351 14.21503161224806
ANGELS                  
1 44876U 19092D   23066.75153720  .00011171  00000+0  52002-3 0  9999
2 44876  97.4759 252.2113 0011976 156.1356 204.0437 15.20033851178205
GAZELLE                 
1 54023U 22127A   23067.46084225 -.00000043  00000+0  00000+0 0  9993
2 54023  98.3208  67.8858 0012661 196.5067 163.5734 14.41751356 21861
EOS-6 (OCEANSAT-3)      
1 54361U 22158A   23066.56948690  .00000892  00000+0  25722-3 0  9990
2 54361  98.3480 164.9406 0001063  83.4126 276.7183 14.47010971 14640
